[{"OBJECT_NAME":"STARLINK-30327","OBJECT_ID":"2023-129K","EPOCH":"2026-03-09T12:25:28.993152","MEAN_MOTION":15.26626807,"ECCENTRICITY":0.00230309,"INCLINATION":42.9974,"RA_OF_ASC_NODE":85.9834,"ARG_OF_PERICENTER":70.832,"MEAN_ANOMALY":289.5022,"EPHEMERIS_TYPE":0,"CLASSIFICATION_TYPE":"U","NORAD_CAT_ID":57707,"ELEMENT_SET_NO":999,"REV_AT_EPOCH":14090,"BSTAR":0.00029313824,"MEAN_MOTION_DOT":7.635e-5,"MEAN_MOTION_DDOT":0},{"OBJECT_NAME":"OBJECT F","OBJECT_ID":"2025-108F","EPOCH":"2026-03-09T23:20:53.522880","MEAN_MOTION":15.23792837,"ECCENTRICITY":0.00112374,"INCLINATION":97.4753,"RA_OF_ASC_NODE":146.7616,"ARG_OF_PERICENTER":356.2264,"MEAN_ANOMALY":3.8886,"EPHEMERIS_TYPE":0,"CLASSIFICATION_TYPE":"U","NORAD_CAT_ID":64092,"ELEMENT_SET_NO":999,"REV_AT_EPOCH":4437,"BSTAR":0.0010326251,"MEAN_MOTION_DOT":0.00024889,"MEAN_MOTION_DDOT":0}]
